50481,ONEWEB-0401,2021,109.2,148.0,+,87.92,Active,1,LEO,Kazakhstan,UK,Commercial,Communications,Soyuz,1 50481U 21132N   24010.46230998  .00000010  00000+0 -82450-5 0  9990,2 50481  87.9230 152.2963 0001414 112.9184 247.2097 13.18681334104489,13.18681334,0.0001414,LEO
50482,ONEWEB-0402,2021,109.2,148.0,+,87.92,Active,1,LEO,Kazakhstan,UK,Commercial,Communications,Soyuz,1 50482U 21132P   24010.42751708  .00000020  00000+0  18566-4 0  9990,2 50482  87.9228 152.3001 0001911 119.2453 240.8870 13.18688091104500,13.18688091,0.0001911,LEO
50483,ONEWEB-0403,2021,109.2,148.0,+,87.92,Active,1,LEO,Kazakhstan,UK,Commercial,Communications,Soyuz,1 50483U 21132Q   24010.75474437 -.00000019  00000+0 -79706-4 0  9991,2 50483  87.9231 152.2401 0001205 106.2427 253.8838 13.18686643105781,13.18686643,0.0001205,LEO
50484,ONEWEB-0404,2021,109.8,148.0,+,87.9,Active,1,LEO,Kazakhstan,UK,Commercial,Communications,Soyuz,1 50484U 21132R   24010.47398817 -.00000359  00000+0 -10501-2 0  9991,2 50484  87.8968 197.6832 0000971  74.8145 285.3091 13.11417501 99214,13.11417501,9.71e-05,LEO
50485,ONEWEB-0405,2021,109.2,148.0,+,87.92,Active,1,LEO,Kazakhstan,UK,Commercial,Communications,Soyuz,1 50485U 21132S   24010.39116920  .00000098  00000+0  21604-3 0  9991,2 50485  87.9231 152.3010 0001417 121.4888 238.6383 13.18688995104850,13.18688995,0.0001417,LEO
50486,ONEWEB-0406,2021,109.2,148.0,+,87.92,Active,1,LEO,Kazakhstan,UK,Commercial,Communications,Soyuz,1 50486U 21132T   24010.45598332  .00000040  00000+0  69489-4 0  9991,2 50486  87.9228 152.2967 0001060  88.5849 271.5405 13.18682886104495,13.18682886,0.000106,LEO
50487,ONEWEB-0407,2021,109.2,148.0,+,87.92,Active,1,LEO,Kazakhstan,UK,Commercial,Communications,Soyuz,1 50487U 21132U   24010.44963925  .00000058  00000+0  11539-3 0  9996,2 50487  87.9228 152.3071 0001348 108.6032 251.5246 13.18688390104431,13.1868839,0.0001348,LEO
50488,ONEWEB-0409,2021,109.8,148.0,+,87.9,Active,1,LEO,Kazakhstan,UK,Commercial,Communications,Soyuz,1 50488U 21132V   24010.47235316 -.00000574  00000+0 -16543-2 0  9990,2 50488  87.8957 197.6941 0001301  63.3087 296.8174 13.11417925 99100,13.11417925,0.0001301,LEO
